NORAD_CAT_ID,OBJECT_NAME,OBJECT_TYPE,EPOCH,MEAN_MOTION,ECCENTRICITY,INCLINATION,RA_OF_ASC_NODE,ARG_OF_PERICENTER,MEAN_ANOMALY,BSTAR,MEAN_MOTION_DOT,MEAN_MOTION_DDOT,TLE_LINE0,TLE_LINE1,TLE_LINE2,SEMIMAJOR_AXIS,PERIOD,APOGEE,PERIGEE,DECAYED
55404.0,STARLINK-5607,PAYLOAD,2024-07-10 04:20:35,14.98329842,0.0003133,69.9999,156.316,270.1852,89.8948,-6.9144e-06,-1.76e-06,0.0,0 STARLINK-5607,1 55404U 23014P   24192.18096862 -.00000176  00000-0 -69144-5 0  9991,2 55404  69.9999 156.3160 0003133 270.1852  89.8948 14.98329842 80114,6950.193,96.107,574.236,569.881,0.0
55404.0,STARLINK-5607,PAYLOAD,2024-07-10 07:32:51,14.98330812,0.0002993,70.0001,155.9801,269.3074,90.7742,-1.3061e-05,-2.49e-06,0.0,0 STARLINK-5607,1 55404U 23014P   24192.31448822 -.00000249  00000-0 -13061-4 0  9990,2 55404  70.0001 155.9801 0002993 269.3074  90.7742 14.98330812 81075,6950.19,96.107,574.136,569.975,0.0
55404.0,STARLINK-5607,PAYLOAD,2024-07-10 21:58:04,14.98328479,0.000306,69.9999,154.4646,270.4353,89.6455,5.1317e-05,5.19e-06,0.0,0 STARLINK-5607,1 55404U 23014P   24192.91532763  .00000519  00000-0  51317-4 0  9998,2 55404  69.9999 154.4646 0003060 270.4353  89.6455 14.98328479 81162,6950.198,96.107,574.189,569.936,0.0
55404.0,STARLINK-5607,PAYLOAD,2024-07-11 04:22:36,14.98332624,0.0003004,69.9999,153.7916,269.7296,90.3518,7.4202e-05,7.93e-06,0.0,0 STARLINK-5607,1 55404U 23014P   24193.18236453  .00000793  00000-0  74202-4 0  9997,2 55404  69.9999 153.7916 0003004 269.7296  90.3518 14.98332624 80265,6950.185,96.107,574.138,569.962,0.0
55404.0,STARLINK-5607,PAYLOAD,2024-07-11 07:34:52,14.98334898,0.000299,69.9999,153.455,269.692,90.3896,9.7184e-05,1.067e-05,0.0,0 STARLINK-5607,1 55404U 23014P   24193.31588219  .00001067  00000-0  97184-4 0  9991,2 55404  69.9999 153.4550 0002990 269.6920  90.3896 14.98334898 81223,6950.178,96.107,574.121,569.965,0.0
55404.0,STARLINK-5607,PAYLOAD,2024-07-12 04:24:37,14.98330914,0.0002836,70.0003,151.2673,269.041,91.0424,4.3662e-05,4.28e-06,0.0,0 STARLINK-5607,1 55404U 23014P   24194.18376575  .00000428  00000-0  43662-4 0  9999,2 55404  70.0003 151.2673 0002836 269.0410  91.0424 14.98330914 80411,6950.19,96.107,574.026,570.084,0.0
55404.0,STARLINK-5607,PAYLOAD,2024-07-12 14:01:25,14.98330194,0.0002773,70.0004,150.2568,269.0019,91.0822,1.8137e-05,1.23e-06,0.0,0 STARLINK-5607,1 55404U 23014P   24194.58432660  .00000123  00000-0  18137-4 0  9992,2 55404  70.0004 150.2568 0002773 269.0019  91.0822 14.98330194 81412,6950.192,96.107,573.985,570.13,0.0
55404.0,STARLINK-5607,PAYLOAD,2024-07-12 22:02:06,14.98332418,0.0002605,70.0007,149.4152,266.4037,93.6824,3.0967e-06,-5.6e-07,0.0,0 STARLINK-5607,1 55404U 23014P   24194.91812532 -.00000056  00000-0  30967-5 0  9991,2 55404  70.0007 149.4152 0002605 266.4037  93.6824 14.98332418 81465,6950.185,96.107,573.861,570.24,0.0
55404.0,STARLINK-5607,PAYLOAD,2024-07-13 04:26:38,14.9833179,0.000269,70.0005,148.7424,263.5373,96.548,-1.2169e-05,-2.38e-06,0.0,0 STARLINK-5607,1 55404U 23014P   24195.18516561 -.00000238  00000-0 -12169-4 0  9990,2 55404  70.0005 148.7424 0002690 263.5373  96.5480 14.98331790 80564,6950.187,96.107,573.922,570.183,0.0
55404.0,STARLINK-5607,PAYLOAD,2024-07-13 06:02:46,14.98332285,0.0002686,70.0006,148.5742,263.3175,96.7678,-6.4913e-06,-1.7e-06,0.0,0 STARLINK-5607,1 55404U 23014P   24195.25192503 -.00000170  00000-0 -64913-5 0  9994,2 55404  70.0006 148.5742 0002686 263.3175  96.7678 14.98332285 81516,6950.186,96.107,573.918,570.184,0.0
55404.0,STARLINK-5607,PAYLOAD,2024-07-13 20:27:58,14.98339334,0.0002799,70.0005,147.0593,265.2863,94.7977,6.9524e-05,7.37e-06,0.0,0 STARLINK-5607,1 55404U 23014P   24195.85275667  .00000737  00000-0  69524-4 0  9992,2 55404  70.0005 147.0593 0002799 265.2863  94.7977 14.98339334 80660,6950.164,96.106,573.974,570.084,0.0
55404.0,STARLINK-5607,PAYLOAD,2024-07-13 22:04:06,14.98340413,0.000285,70.0005,146.8924,261.1187,98.965,8.029e-05,8.65e-06,0.0,0 STARLINK-5607,1 55404U 23014P   24195.91951492  .00000865  00000-0  80290-4 0  9991,2 55404  70.0005 146.8924 0002850 261.1187  98.9650 14.98340413 81617,6950.161,96.106,574.006,570.045,0.0
55404.0,STARLINK-5607,PAYLOAD,2024-07-14 04:28:37,14.98346154,0.0002772,70.0005,146.2176,265.0186,95.0657,0.00014047,1.584e-05,0.0,0 STARLINK-5607,1 55404U 23014P   24196.18654798  .00001584  00000-0  14047-3 0  9995,2 55404  70.0005 146.2176 0002772 265.0186  95.0657 14.98346154 80718,6950.143,96.106,573.935,570.081,0.0
55404.0,STARLINK-5607,PAYLOAD,2024-07-14 06:04:45,14.98347343,0.0002765,70.0006,146.0492,265.2407,94.8437,0.00015172,1.719e-05,0.0,0 STARLINK-5607,1 55404U 23014P   24196.25330632  .00001719  00000-0  15172-3 0  9991,2 55404  70.0006 146.0492 0002765 265.2407  94.8437 14.98347343 81667,6950.139,96.106,573.926,570.083,0.0
55404.0,STARLINK-5607,PAYLOAD,2024-07-14 20:29:59,14.98328143,0.0002824,70.0003,144.5331,269.643,90.4405,2.8448e-05,2.46e-06,0.0,0 STARLINK-5607,1 55404U 23014P   24196.85415964  .00000246  00000-0  28448-4 0  9994,2 55404  70.0003 144.5331 0002824 269.6430  90.4405 14.98328143 80819,6950.199,96.107,574.026,570.101,0.0
55404.0,STARLINK-5607,PAYLOAD,2024-07-14 22:06:07,14.98327869,0.0002769,70.0005,144.3663,266.9638,93.1204,3.2668e-07,-8.9e-07,0.0,0 STARLINK-5607,1 55404U 23014P   24196.92092078 -.00000089  00000-0  32668-6 0  9996,2 55404  70.0005 144.3663 0002769 266.9638  93.1204 14.98327869 81761,6950.199,96.107,573.989,570.14,0.0
55404.0,STARLINK-5607,PAYLOAD,2024-07-15 06:06:48,14.98324836,0.0003029,70.0002,143.5239,271.2246,88.8566,-6.1866e-05,-8.31e-06,0.0,0 STARLINK-5607,1 55404U 23014P   24197.25472538 -.00000831  00000-0 -61866-4 0  9992,2 55404  70.0002 143.5239 0003029 271.2246  88.8566 14.98324836 81811,6950.209,96.107,574.179,569.969,0.0
55404.0,STARLINK-5607,PAYLOAD,2024-07-15 20:32:00,14.9833092,0.0003101,70.0001,142.0087,271.9652,88.1152,-0.00017852,-2.222e-05,0.0,0 STARLINK-5607,1 55404U 23014P   24197.85556603 -.00002222  00000-0 -17852-3 0  9995,2 55404  70.0001 142.0087 0003101 271.9652  88.1152 14.98330920 80964,6950.19,96.107,574.21,569.9,0.0
55404.0,STARLINK-5607,PAYLOAD,2024-07-15 22:08:08,14.98332205,0.0003202,70.0,141.8415,274.3107,85.7686,-0.00018123,-2.255e-05,0.0,0 STARLINK-5607,1 55404U 23014P   24197.92232544 -.00002255  00000-0 -18123-3 0  9996,2 55404  70.0000 141.8415 0003202 274.3107  85.7686 14.98332205 81918,6950.186,96.107,574.277,569.826,0.0
55404.0,STARLINK-5607,PAYLOAD,2024-07-16 06:08:48,14.98338331,0.0002993,70.0003,140.9983,270.4578,89.6238,-7.3154e-05,-9.66e-06,0.0,0 STARLINK-5607,1 55404U 23014P   24198.25611784 -.00000966  00000-0 -73154-4 0  9993,2 55404  70.0003 140.9983 0002993 270.4578  89.6238 14.98338331 81020,6950.167,96.106,574.112,569.952,0.0
55404.0,STARLINK-5607,PAYLOAD,2024-07-16 22:10:09,14.98325149,0.0002924,70.0006,139.3156,272.5705,87.512,0.00013541,1.523e-05,0.0,0 STARLINK-5607,1 55404U 23014P   24198.92372038  .00001523  00000-0  13541-3 0  9994,2 55404  70.0006 139.3156 0002924 272.5705  87.5120 14.98325149 82061,6950.208,96.107,574.105,570.041,0.0
55404.0,STARLINK-5607,PAYLOAD,2024-07-17 06:10:49,14.98335394,0.000282,70.0007,138.4747,271.5298,88.5538,0.00024453,2.826e-05,0.0,0 STARLINK-5607,1 55404U 23014P   24199.25751183  .00002826  00000-0  24453-3 0  9994,2 55404  70.0007 138.4747 0002820 271.5298  88.5538 14.98335394 81177,6950.176,96.107,574.001,570.081,0.0
55404.0,STARLINK-5607,PAYLOAD,2024-07-17 20:36:02,14.98327454,0.0002187,70.0024,136.9652,255.2844,104.8073,2.8941e-05,2.52e-06,0.0,0 STARLINK-5607,1 55404U 23014P   24199.85836477  .00000252  00000-0  28941-4 0  9998,2 55404  70.0024 136.9652 0002187 255.2844 104.8073 14.98327454 81260,6950.201,96.107,573.586,570.546,0.0
55404.0,STARLINK-5607,PAYLOAD,2024-07-17 22:12:10,14.98327149,0.0002323,70.0022,136.7956,247.7967,112.2946,1.9954e-05,1.45e-06,0.0,0 STARLINK-5607,1 55404U 23014P   24199.92512435  .00000145  00000-0  19954-4 0  9996,2 55404  70.0022 136.7956 0002323 247.7967 112.2946 14.98327149 82216,6950.202,96.107,573.681,570.452,0.0
55404.0,STARLINK-5607,PAYLOAD,2024-07-18 12:37:23,14.98326407,0.0002247,70.0024,135.278,265.2299,94.8603,-5.9807e-05,-8.06e-06,0.0,0 STARLINK-5607,1 55404U 23014P   24200.52596937 -.00000806  00000-0 -59807-4 0  9991,2 55404  70.0024 135.2780 0002247 265.2299  94.8603 14.98326407 82306,6950.204,96.107,573.631,570.507,0.0
55404.0,STARLINK-5607,PAYLOAD,2024-07-18 20:38:03,14.98329176,0.0002567,70.001,134.4356,270.4646,89.6219,-5.7612e-05,-7.8e-06,0.0,0 STARLINK-5607,1 55404U 23014P   24200.85976778 -.00000780  00000-0 -57612-4 0  9995,2 55404  70.0010 134.4356 0002567 270.4646  89.6219 14.98329176 81412,6950.195,96.107,573.845,570.276,0.0
55404.0,STARLINK-5607,PAYLOAD,2024-07-18 22:14:12,14.98328786,0.0002617,70.0009,134.267,270.1012,89.9847,-6.1184e-05,-8.23e-06,0.0,0 STARLINK-5607,1 55404U 23014P   24200.92652813 -.00000823  00000-0 -61184-4 0  9991,2 55404  70.0009 134.2670 0002617 270.1012  89.9847 14.98328786 82368,6950.197,96.107,573.881,570.243,0.0
55404.0,STARLINK-5607,PAYLOAD,2024-07-19 12:39:24,14.98331547,0.0002483,70.0012,132.7525,269.5161,90.5713,-8.1694e-05,-1.068e-05,0.0,0 STARLINK-5607,1 55404U 23014P   24201.52736695 -.00001068  00000-0 -81694-4 0  9999,2 55404  70.0012 132.7525 0002483 269.5161  90.5713 14.98331547 82451,6950.188,96.107,573.779,570.327,0.0
55404.0,STARLINK-5607,PAYLOAD,2024-07-19 20:40:04,14.98329079,0.0002627,70.0007,131.9111,267.7844,92.3014,6.9981e-05,7.42e-06,0.0,0 STARLINK-5607,1 55404U 23014P   24201.86116507  .00000742  00000-0  69981-4 0  9991,2 55404  70.0007 131.9111 0002627 267.7844  92.3014 14.98329079 81567,6950.196,96.107,573.887,570.235,0.0
55404.0,STARLINK-5607,PAYLOAD,2024-07-19 22:16:12,14.98328293,0.0002657,70.0006,131.7429,267.0298,93.0557,5.5777e-05,5.73e-06,0.0,0 STARLINK-5607,1 55404U 23014P   24201.92792597  .00000573  00000-0  55777-4 0  9997,2 55404  70.0006 131.7429 0002657 267.0298  93.0557 14.98328293 82518,6950.198,96.107,573.91,570.217,0.0
